CUTE-1 (CO-55)          
1 27844U 03031E   26197.47091366  .00000129  00000+0  74881-4 0  9996
2 27844  98.6744 205.6621 0010849  99.3803 260.8604 14.24352009195844
CUBESAT XI-IV (CO-57)   
1 27848U 03031J   26197.47409145  .00000105  00000+0  65297-4 0  9993
2 27848  98.6775 205.3542 0010587 115.9860 244.2410 14.23634953195546
CUBESAT XI-V            
1 28895U 05043F   26197.41495073  .00000623  00000+0  10578-3 0  9996
2 28895  98.3016 353.6566 0015289 111.6575 248.6262 14.72703928106051
CUTE-1.7+APD II (CO-65) 
1 32785U 08021C   26197.61287230  .00002406  00000+0  15344-3 0  9991
2 32785  97.8297 179.6522 0006914 293.8449  66.2054 15.09708646989634
CANX-2                  
1 32790U 08021H   26197.46186631  .00001360  00000+0  98258-4 0  9997
2 32790  97.8658 177.8156 0008616 313.1738  46.8768 15.05810340989213
SEEDS II (CO-66)        
1 32791U 08021J   26197.50387268  .00010519  00000+0  32533-3 0  9991
2 32791  97.7523 196.8243 0003211 153.5241 206.6165 15.33693982991787
SWISSCUBE               
1 35932U 09051B   26197.17712107  .00000443  00000+0  97133-4 0  9995
2 35932  98.4006 105.5678 0007887 116.4429 243.7582 14.62531689893398
BEESAT-1                
1 35933U 09051C   26197.27017215  .00000367  00000+0  83467-4 0  9995
2 35933  98.3933 105.2367 0006190 126.9816 233.1952 14.61762755893439
ITUPSAT1                
1 35935U 09051E   26197.21805450  .00000338  00000+0  79710-4 0  9991
2 35935  98.4016 104.3446 0008155 140.2213 219.9586 14.60479538892971
TISAT 1                 
1 36799U 10035E   26197.37356152  .00010605  00000+0  33782-3 0  9997
2 36799  98.0716 146.5388 0004580 117.8384 242.3321 15.32758593872171
STRAND-1                
1 39090U 13009E   26197.43623745  .00000110  00000+0  51462-4 0  9996
2 39090  98.3935  16.9527 0009468 137.7246 222.4672 14.37179260701268
BRITE-AUSTRIA           
1 39091U 13009F   26197.46180923  .00000066  00000+0  37060-4 0  9994
2 39091  98.4009  16.1751 0010831 147.0880 213.0983 14.36552802701253
NEE-01 PEGASO           
1 39151U 13018B   26197.33817935  .00001260  00000+0  12445-3 0  9993
2 39151  98.1258 342.4598 0013667  71.0065 289.2633 14.93791702715055
POPACS 2                
1 39269U 13055E   26196.75443690  .00014540 -92046-6  23703-3 0  9995
2 39269  80.9916 111.4814 0414930 102.0893 262.7124 14.92031396667470
POPACS 3                
1 39270U 13055F   26196.42360878  .00008298  00000+0  19704-3 0  9997
2 39270  80.9990 198.5566 0548749 343.9708  14.4695 14.56665007642662
ZACUBE-1 (TSHEPISOSAT)  
1 39417U 13066B   26197.46763023  .00001130  00000+0  90932-4 0  9997
2 39417  97.8007 159.9484 0044077 151.1384 209.2292 15.01331708685129
WNISAT-1                
1 39423U 13066H   26197.37677968  .00000568  00000+0  11116-3 0  9996
2 39423  97.7236 344.4664 0163939 139.6123 221.7386 14.58121405670984
TRITON-1                
1 39427U 13066M   26197.67095868  .00001079  00000+0  13394-3 0  9994
2 39427  97.8228 106.8045 0090700 137.3415 223.4888 14.81799362678452
GOMX-1                  
1 39430U 13066Q   26197.60108436  .00000649  00000+0  10433-3 0  9990
2 39430  97.6463  36.2075 0128126 343.6834  16.0265 14.69544590674239
CUBEBUG-2 (LO-74)       
1 39440U 13066AA  26197.40077608  .00002037  00000+0  19133-3 0  9994
2 39440  97.8916 146.5092 0055572 291.2614  68.2676 14.93971621681359
NEE-02 KRYSAOR          
1 39441U 13066AB  26197.35207890  .00001071  00000+0  12224-3 0  9998
2 39441  97.8898 136.3620 0065307 335.4659  24.3453 14.86741614680534
FUNCUBE-1 (AO-73)       
1 39444U 13066AE  26197.48559538  .00003947  00000+0  24422-3 0  9991
2 39444  97.8291 169.5530 0037985 103.5264 257.0201 15.09827473684083
UWE-3                   
1 39446U 13066AG  26197.42298078  .00001997  00000+0  17415-3 0  9993
2 39446  97.8715 153.7003 0047556 220.3084 139.4608 14.97203974681956
BRITE-CA1 (TORONTO)     
1 40020U 14033L   26197.59336283  .00000508  00000+0  83872-4 0  9995
2 40020  97.9774 325.9852 0078542 181.7768 178.3173 14.72724091646541
DUCHIFAT-1              
1 40021U 14033M   26197.12557747  .00087055  00000+0  68520-3 0  9999
2 40021  98.0416 260.5020 0002770 239.6355 120.4633 15.71200075660280
NANOSATC-BR1            
1 40024U 14033Q   26197.33760965  .00008661  00000+0  28002-3 0  9990
2 40024  98.0705 232.3273 0005275  93.8417 266.3426 15.32349579658448
QB50P1                  
1 40025U 14033R   26197.47410784  .00003992  00000+0  19607-3 0  9990
2 40025  98.0963 210.6830 0010418 120.8917 239.3341 15.18676671657472
QB50P2                  
1 40032U 14033Y   26197.48470663  .00004051  00000+0  21763-3 0  9994
2 40032  98.0761 196.1982 0009284  80.2823 279.9456 15.15516482657103
PERSEUS-M2              
1 40037U 14033AD  26197.63563409  .00000483  00000+0  48967-4 0  9998
2 40037  97.9986 148.7802 0010935 194.2056 165.8858 14.95592586655189
PERSEUS-M1              
1 40039U 14033AF  26197.47242959  .00000992  00000+0  94458-4 0  9997
2 40039  97.9654 142.0883 0010988 191.8544 168.2419 14.95718519655010
